IRIDIUM 135             
1 43070U 17083A   26163.19799950  .00000014  00000+0 -21211-5 0  9997
2 43070  86.3959 324.1019 0002056  91.5314 268.6118 14.34217599443437
IRIDIUM 138             
1 43071U 17083B   26163.15360154  .00000126  00000+0  38043-4 0  9997
2 43071  86.3976 323.8151 0002374  87.6394 272.5074 14.34218407443419
IRIDIUM 116             
1 43072U 17083C   26163.19165684  .00000066  00000+0  16418-4 0  9998
2 43072  86.3959 324.0905 0001901  96.2147 263.9265 14.34217759443457
IRIDIUM 130             
1 43073U 17083D   26163.15994343 -.00000088  00000+0 -38536-4 0  9998
2 43073  86.3965 324.3786 0001842  89.5887 270.5520 14.34217057443397
IRIDIUM 151             
1 43074U 17083E   26162.92526822  .00000035  00000+0  53677-5 0  9990
2 43074  86.3962 324.2596 0002126  92.5510 267.5929 14.34217650443383
IRIDIUM 134             
1 43075U 17083F   26163.17262901  .00000016  00000+0 -13509-5 0  9994
2 43075  86.3959 324.1641 0001978  90.0496 270.0926 14.34217662443389
IRIDIUM 137             
1 43076U 17083G   26163.18531453  .00000045  00000+0  90847-5 0  9998
2 43076  86.3964 324.2514 0002113 103.7228 256.4204 14.34217634443457
IRIDIUM 141             
1 43077U 17083H   26163.17897190  .00000051  00000+0  11157-4 0  9994
2 43077  86.3959 324.0850 0002209  90.8506 269.2943 14.34217865443452
IRIDIUM 153             
1 43078U 17083J   26163.27068801  .00000009  00000+0 -37446-5 0  9999
2 43078  86.3955 292.5269 0002174  90.2465 269.8980 14.34217534444575
IRIDIUM 131             
1 43079U 17083K   26163.16628694  .00000011  00000+0 -32907-5 0  9990
2 43079  86.3963 324.2761 0002099  91.8472 268.2964 14.34217415443387
IRIDIUM 144             
1 43249U 18030A   26163.27702986  .00000055  00000+0  12450-4 0  9998
2 43249  86.3955 292.4532 0002071  95.6137 264.5295 14.34217883429434
IRIDIUM 149             
1 43250U 18030B   26163.28337260  .00000036  00000+0  58768-5 0  9992
2 43250  86.3952 292.4176 0002247  93.3274 266.8179 14.34217933429453
IRIDIUM 157             
1 43251U 18030C   26163.30240062  .00000020  00000+0  22826-6 0  9999
2 43251  86.3953 292.4630 0002086  94.0895 266.0540 14.34217643429438
IRIDIUM 140             
1 43252U 18030D   26163.11212274  .00000009  00000+0 -38376-5 0  9997
2 43252  86.3955 292.5550 0002124  92.8752 267.2687 14.34217630429468
IRIDIUM 145             
1 43253U 18030E   26163.30874216  .00000182  00000+0  58073-4 0  9995
2 43253  86.3955 292.4450 0001918  99.4428 260.6985 14.34217893429425
IRIDIUM 146             
1 43254U 18030F   26163.28971545  .00000009  00000+0 -38040-5 0  9998
2 43254  86.3956 292.4652 0002097  96.1471 263.9963 14.34217596429435
IRIDIUM 148             
1 43255U 18030G   26163.11846597  .00000014  00000+0 -21532-5 0  9993
2 43255  86.3955 292.5798 0002222  97.1446 263.0003 14.34217387429445
IRIDIUM 142             
1 43256U 18030H   26163.29605739  .00000267  00000+0  88404-4 0  9993
2 43256  86.3953 292.3946 0002039  97.6655 262.4772 14.34217582429432
IRIDIUM 150             
1 43257U 18030J   26163.05503943 -.00000006  00000+0 -90329-5 0  9995
2 43257  86.3954 292.6118 0002014  93.2138 266.9288 14.34217468429422
IRIDIUM 143             
1 43258U 18030K   26163.31508522  .00000213  00000+0  68817-4 0  9997
2 43258  86.3958 292.5954 0002067  95.4159 264.7272 14.34218492429392
IRIDIUM 161             
1 43478U 18047C   26163.24650803  .00000294  00000+0  81449-4 0  9996
2 43478  86.4483  90.5368 0002549  86.4128 273.7364 14.43280383424425
IRIDIUM 152             
1 43479U 18047D   26163.28780459 -.00000003  00000+0 -82376-5 0  9993
2 43479  86.3957  90.3806 0002240  83.2631 276.8820 14.34217385421787
IRIDIUM 147             
1 43480U 18047E   26163.29414646  .00000044  00000+0  87321-5 0  9996
2 43480  86.3960  90.3830 0002151  85.0629 275.0812 14.34217719421781
IRIDIUM 110             
1 43481U 18047F   26163.30048953  .00000047  00000+0  97301-5 0  9995
2 43481  86.3963  90.4722 0002604  84.6826 275.4667 14.34218025421775
IRIDIUM 162             
1 43482U 18047G   26163.24021384  .00000293  00000+0  80969-4 0  9992
2 43482  86.4481  90.4305 0002316  82.8699 277.2765 14.43279047424411
IRIDIUM 160             
1 43569U 18061A   26163.24632549  .00000003  00000+0 -59643-5 0  9991
2 43569  86.3962  58.8630 0002177  85.6615 274.4829 14.34217425412669
IRIDIUM 166             
1 43570U 18061B   26163.20192682  .00000108  00000+0  31466-4 0  9995
2 43570  86.3967  58.8324 0002118  85.6127 274.5310 14.34217933412681
IRIDIUM 158             
1 43571U 18061C   26163.23998236  .00000066  00000+0  16410-4 0  9993
2 43571  86.3965  58.8265 0002233  82.2504 277.8945 14.34217734412650
IRIDIUM 165             
1 43572U 18061D   26163.19558193  .00000154  00000+0  47830-4 0  9991
2 43572  86.3968  58.8913 0002073  85.6155 274.5277 14.34217234412674
IRIDIUM 155             
1 43573U 18061E   26163.22729688  .00000011  00000+0 -30289-5 0  9999
2 43573  86.3958  58.7470 0002029  81.9130 278.2296 14.34217606412646
