OBJECT_NAME,OBJECT_ID,EPOCH,MEAN_MOTION,ECCENTRICITY,INCLINATION,RA_OF_ASC_NODE,ARG_OF_PERICENTER,MEAN_ANOMALY,EPHEMERIS_TYPE,CLASSIFICATION_TYPE,NORAD_CAT_ID,ELEMENT_SET_NO,REV_AT_EPOCH,BSTAR,MEAN_MOTION_DOT,MEAN_MOTION_DDOT
IRIDIUM 135,2017-083A,2026-06-12T04:45:07.156800,14.34217599,.00020562,86.3959,324.1019,91.5314,268.6118,0,U,43070,999,44343,-.2121128E-5,.14E-6,0
IRIDIUM 138,2017-083B,2026-06-12T03:41:11.173056,14.34218407,.00023747,86.3976,323.8151,87.6394,272.5074,0,U,43071,999,44341,.38043009E-4,.126E-5,0
IRIDIUM 116,2017-083C,2026-06-12T04:35:59.150976,14.34217759,.00019014,86.3959,324.0905,96.2147,263.9265,0,U,43072,999,44345,.16418128E-4,.66E-6,0
IRIDIUM 130,2017-083D,2026-06-12T03:50:19.112352,14.34217057,.00018429,86.3965,324.3786,89.5887,270.5520,0,U,43073,999,44339,-.38535834E-4,-.88E-6,0
IRIDIUM 151,2017-083E,2026-06-11T22:12:23.174208,14.34217650,.00021263,86.3962,324.2596,92.5510,267.5929,0,U,43074,999,44338,.5367707E-5,.35E-6,0
IRIDIUM 134,2017-083F,2026-06-12T04:08:35.146464,14.34217662,.00019785,86.3959,324.1641,90.0496,270.0926,0,U,43075,999,44338,-.1350859E-5,.16E-6,0
IRIDIUM 137,2017-083G,2026-06-12T04:26:51.175392,14.34217634,.00021134,86.3964,324.2514,103.7228,256.4204,0,U,43076,999,44345,.9084747E-5,.45E-6,0
IRIDIUM 141,2017-083H,2026-06-12T04:17:43.172160,14.34217865,.00022093,86.3959,324.0850,90.8506,269.2943,0,U,43077,999,44345,.11156969E-4,.51E-6,0
IRIDIUM 153,2017-083J,2026-06-12T06:29:47.444064,14.34217534,.0002174,86.3955,292.5269,90.2465,269.8980,0,U,43078,999,44457,-.3744588E-5,.9E-7,0
IRIDIUM 131,2017-083K,2026-06-12T03:59:27.191616,14.34217415,.00020993,86.3963,324.2761,91.8472,268.2964,0,U,43079,999,44338,-.3290735E-5,.11E-6,0
IRIDIUM 144,2018-030A,2026-06-12T06:38:55.379904,14.34217883,.00020717,86.3955,292.4532,95.6137,264.5295,0,U,43249,999,42943,.12449696E-4,.55E-6,0
IRIDIUM 149,2018-030B,2026-06-12T06:48:03.392640,14.34217933,.00022475,86.3952,292.4176,93.3274,266.8179,0,U,43250,999,42945,.5876803E-5,.36E-6,0
IRIDIUM 157,2018-030C,2026-06-12T07:15:27.413568,14.34217643,.00020861,86.3953,292.4630,94.0895,266.0540,0,U,43251,999,42943,.228257E-6,.2E-6,0
IRIDIUM 140,2018-030D,2026-06-12T02:41:27.404736,14.34217630,.00021248,86.3955,292.5550,92.8752,267.2687,0,U,43252,999,42946,-.3837576E-5,.9E-7,0
IRIDIUM 145,2018-030E,2026-06-12T07:24:35.322624,14.34217893,.00019186,86.3955,292.4450,99.4428,260.6985,0,U,43253,999,42942,.58072813E-4,.182E-5,0
IRIDIUM 146,2018-030F,2026-06-12T06:57:11.414880,14.34217596,.00020978,86.3956,292.4652,96.1471,263.9963,0,U,43254,999,42943,-.3804019E-5,.9E-7,0
IRIDIUM 148,2018-030G,2026-06-12T02:50:35.459808,14.34217387,.00022229,86.3955,292.5798,97.1446,263.0003,0,U,43255,999,42944,-.2153211E-5,.14E-6,0
IRIDIUM 142,2018-030H,2026-06-12T07:06:19.358496,14.34217582,.00020399,86.3953,292.3946,97.6655,262.4772,0,U,43256,999,42943,.88403747E-4,.267E-5,0
IRIDIUM 150,2018-030J,2026-06-12T01:19:15.406752,14.34217468,.00020146,86.3954,292.6118,93.2138,266.9288,0,U,43257,999,42942,-.9032888E-5,-.6E-7,0
IRIDIUM 143,2018-030K,2026-06-12T07:33:43.363008,14.34218492,.00020672,86.3958,292.5954,95.4159,264.7272,0,U,43258,999,42939,.6881721E-4,.213E-5,0
IRIDIUM 161,2018-047C,2026-06-12T05:54:58.293792,14.43280383,.00025496,86.4483,90.5368,86.4128,273.7364,0,U,43478,999,42442,.81448941E-4,.294E-5,0
IRIDIUM 152,2018-047D,2026-06-12T06:54:26.316576,14.34217385,.00022409,86.3957,90.3806,83.2631,276.8820,0,U,43479,999,42178,-.8237593E-5,-.3E-7,0
IRIDIUM 147,2018-047E,2026-06-12T07:03:34.254144,14.34217719,.00021518,86.3960,90.3830,85.0629,275.0812,0,U,43480,999,42178,.8732124E-5,.44E-6,0
IRIDIUM 110,2018-047F,2026-06-12T07:12:42.295392,14.34218025,.00026043,86.3963,90.4722,84.6826,275.4667,0,U,43481,999,42177,.9730147E-5,.47E-6,0
IRIDIUM 162,2018-047G,2026-06-12T05:45:54.475776,14.43279047,.00023169,86.4481,90.4305,82.8699,277.2765,0,U,43482,999,42441,.80968587E-4,.293E-5,0
IRIDIUM 160,2018-061A,2026-06-12T05:54:42.522336,14.34217425,.00021773,86.3962,58.8630,85.6615,274.4829,0,U,43569,999,41266,-.5964262E-5,.3E-7,0
IRIDIUM 166,2018-061B,2026-06-12T04:50:46.477248,14.34217933,.00021186,86.3967,58.8324,85.6127,274.5310,0,U,43570,999,41268,.31465657E-4,.108E-5,0
IRIDIUM 158,2018-061C,2026-06-12T05:45:34.475904,14.34217734,.00022336,86.3965,58.8265,82.2504,277.8945,0,U,43571,999,41265,.16410148E-4,.66E-6,0
IRIDIUM 165,2018-061D,2026-06-12T04:41:38.278752,14.34217234,.00020735,86.3968,58.8913,85.6155,274.5277,0,U,43572,999,41267,.4783008E-4,.154E-5,0
IRIDIUM 155,2018-061E,2026-06-12T05:27:18.450432,14.34217606,.0002029,86.3958,58.7470,81.9130,278.2296,0,U,43573,999,41264,-.302887E-5,.11E-6,0
